{"type": "FeatureCollection", "features": [ {"type": "Feature", "properties": {"norad_id": 39634, "name": "SENTINEL-1A", "group": "resource", "lat": 21.695727340913994, "lon": 2.530068876960738, "alt_km": 695.1298338559245, "timestamp": "2025-12-26T18:39:31.929329+00:00", "meta": {"OBJECT_NAME": "SENTINEL-1A", "OBJECT_ID": "2014-016A", "EPOCH": "2025-12-26T15:16:02.121024", "MEAN_MOTION": 14.59199591, "ECCENTRICITY": 0.00012596, "INCLINATION": 98.1805, "RA_OF_ASC_NODE": 5.6718, "ARG_OF_PERICENTER": 84.0509, "MEAN_ANOMALY": 276.0835, "EPHEMERIS_TYPE": 0, "CLASSIFICATION_TYPE": "U", "NORAD_CAT_ID": 39634, "ELEMENT_SET_NO": 999, "REV_AT_EPOCH": 62485, "BSTAR": 9.33976e-07, "MEAN_MOTION_DOT": -4.1e-07, "MEAN_MOTION_DDOT": 0}, "tle": {"line1": "1 39634U 14016A   25360.63613566 -.00000041  00000+0  93398-6 0  9992", "line2": "2 39634  98.1805   5.6718 0001259  84.0509 276.0835 14.59199591624857"}}, "geometry": {"type": "Point", "coordinates": [2.530068876960738, 21.695727340913994]}}, {"type": "Feature", "properties": {"norad_id": 39731, "name": "KAZEOSAT 1", "group": "resource", "lat": -31.803388294443284, "lon": -112.85108196021098, "alt_km": 758.1015059699184, "timestamp": "2025-12-26T18:39:31.929339+00:00", "meta": {"OBJECT_NAME": "KAZEOSAT 1", "OBJECT_ID": "2014-024A", "EPOCH": "2025-12-26T14:20:53.009664", "MEAN_MOTION": 14.42071202, "ECCENTRICITY": 0.00012401, "INCLINATION": 98.3412, "RA_OF_ASC_NODE": 72.1933, "ARG_OF_PERICENTER": 96.0738, "MEAN_ANOMALY": 264.0593, "EPHEMERIS_TYPE": 0, "CLASSIFICATION_TYPE": "U", "NORAD_CAT_ID": 39731, "ELEMENT_SET_NO": 999, "REV_AT_EPOCH": 61368, "BSTAR": 0.00016433914, "MEAN_MOTION_DOT": 4.97e-06, "MEAN_MOTION_DDOT": 0}, "tle": {"line1": "1 39731U 14024A   25360.59783576  .00000497  00000+0  16434-3 0  9990", "line2": "2 39731  98.3412  72.1933 0001240  96.0738 264.0593 14.42071202613683"}}, "geometry": {"type": "Point", "coordinates": [-112.85108196021098, -31.803388294443284]}}, {"type": "Feature", "properties": {"norad_id": 39766, "name": "ALOS-2", "group": "resource", "lat": -3.3615336690603264, "lon": -85.04530671926909, "alt_km": 634.3575737044939, "timestamp": "2025-12-26T18:39:31.929349+00:00", "meta": {"OBJECT_NAME": "ALOS-2", "OBJECT_ID": "2014-029A", "EPOCH": "2025-12-26T14:35:12.631776", "MEAN_MOTION": 14.79474888, "ECCENTRICITY": 0.00013761, "INCLINATION": 97.9218, "RA_OF_ASC_NODE": 95.2561, "ARG_OF_PERICENTER": 97.9801, "MEAN_ANOMALY": 262.1567, "EPHEMERIS_TYPE": 0, "CLASSIFICATION_TYPE": "U", "NORAD_CAT_ID": 39766, "ELEMENT_SET_NO": 999, "REV_AT_EPOCH": 62606, "BSTAR": 0.00031470414, "MEAN_MOTION_DOT": 2.3e-05, "MEAN_MOTION_DDOT": 0}, "tle": {"line1": "1 39766U 14029A   25360.60778509  .00002300  00000+0  31470-3 0  9997", "line2": "2 39766  97.9218  95.2561 0001376  97.9801 262.1567 14.79474888626067"}}, "geometry": {"type": "Point", "coordinates": [-85.04530671926909, -3.3615336690603264]}}, {"type": "Feature", "properties": {"norad_id": 40010, "name": "KAZEOSAT 2", "group": "resource", "lat": 20.721175764397074, "lon": -158.50892961001085, "alt_km": 617.5825634436023, "timestamp": "2025-12-26T18:39:31.929360+00:00", "meta": {"OBJECT_NAME": "KAZEOSAT 2", "OBJECT_ID": "2014-033A", "EPOCH": "2025-12-26T13:42:50.368320", "MEAN_MOTION": 14.85188277, "ECCENTRICITY": 0.0008827, "INCLINATION": 97.5496, "RA_OF_ASC_NODE": 204.1715, "ARG_OF_PERICENTER": 159.7719, "MEAN_ANOMALY": 200.3848, "EPHEMERIS_TYPE": 0, "CLASSIFICATION_TYPE": "U", "NORAD_CAT_ID": 40010, "ELEMENT_SET_NO": 999, "REV_AT_EPOCH": 62333, "BSTAR": 3.1670951e-05, "MEAN_MOTION_DOT": 2.21e-06, "MEAN_MOTION_DDOT": 0}, "tle": {"line1": "1 40010U 14033A   25360.57141630  .00000221  00000+0  31671-4 0  9995", "line2": "2 40010  97.5496 204.1715 0008827 159.7719 200.3848 14.85188277623334"}}, "geometry": {"type": "Point", "coordinates": [-158.50892961001085, 20.721175764397074]}}, {"type": "Feature", "properties": {"norad_id": 40011, "name": "HODOYOSHI-4", "group": "resource", "lat": -46.10929443997192, "lon": 1.0547154916436705, "alt_km": 607.3004057041298, "timestamp": "2025-12-26T18:39:31.929370+00:00", "meta": {"OBJECT_NAME": "HODOYOSHI-4", "OBJECT_ID": "2014-033B", "EPOCH": "2025-12-26T14:24:59.037984", "MEAN_MOTION": 14.87531185, "ECCENTRICITY": 0.00242812, "INCLINATION": 97.5411, "RA_OF_ASC_NODE": 188.8017, "ARG_OF_PERICENTER": 154.6698, "MEAN_ANOMALY": 205.5716, "EPHEMERIS_TYPE": 0, "CLASSIFICATION_TYPE": "U", "NORAD_CAT_ID": 40011, "ELEMENT_SET_NO": 999, "REV_AT_EPOCH": 62314, "BSTAR": 0.00029477291, "MEAN_MOTION_DOT": 2.637e-05, "MEAN_MOTION_DDOT": 0}, "tle": {"line1": "1 40011U 14033B   25360.60068331  .00002637  00000+0  29477-3 0  9999", "line2": "2 40011  97.5411 188.8017 0024281 154.6698 205.5716 14.87531185623149"}}, "geometry": {"type": "Point", "coordinates": [1.0547154916436705, -46.10929443997192]}}, {"type": "Feature", "properties": {"norad_id": 40013, "name": "DEIMOS-2", "group": "resource", "lat": -58.309000361238105, "lon": -111.38798803489897, "alt_km": 596.5714131058548, "timestamp": "2025-12-26T18:39:31.929381+00:00", "meta": {"OBJECT_NAME": "DEIMOS-2", "OBJECT_ID": "2014-033D", "EPOCH": "2025-12-26T15:42:23.337792", "MEAN_MOTION": 14.93031397, "ECCENTRICITY": 0.00013833, "INCLINATION": 97.6048, "RA_OF_ASC_NODE": 235.9954, "ARG_OF_PERICENTER": 112.3436, "MEAN_ANOMALY": 247.7931, "EPHEMERIS_TYPE": 0, "CLASSIFICATION_TYPE": "U", "NORAD_CAT_ID": 40013, "ELEMENT_SET_NO": 999, "REV_AT_EPOCH": 61197, "BSTAR": 0.0002391418, "MEAN_MOTION_DOT": 2.433e-05, "MEAN_MOTION_DDOT": 0}, "tle": {"line1": "1 40013U 14033D   25360.65443678  .00002433  00000+0  23914-3 0  9991", "line2": "2 40013  97.6048 235.9954 0001383 112.3436 247.7931 14.93031397611973"}}, "geometry": {"type": "Point", "coordinates": [-111.38798803489897, -58.309000361238105]}}, {"type": "Feature", "properties": {"norad_id": 40015, "name": "HODOYOSHI-3", "group": "resource", "lat": 16.463709701701312, "lon": 163.73529732955748, "alt_km": 637.4814763108807, "timestamp": "2025-12-26T18:39:31.929391+00:00", "meta": {"OBJECT_NAME": "HODOYOSHI-3", "OBJECT_ID": "2014-033F", "EPOCH": "2025-12-26T13:43:54.549696", "MEAN_MOTION": 14.84853471, "ECCENTRICITY": 0.00326302, "INCLINATION": 97.6208, "RA_OF_ASC_NODE": 165.8066, "ARG_OF_PERICENTER": 201.0255, "MEAN_ANOMALY": 158.9621, "EPHEMERIS_TYPE": 0, "CLASSIFICATION_TYPE": "U", "NORAD_CAT_ID": 40015, "ELEMENT_SET_NO": 999, "REV_AT_EPOCH": 62200, "BSTAR": 0.00020956895, "MEAN_MOTION_DOT": 1.745e-05, "MEAN_MOTION_DDOT": 0}, "tle": {"line1": "1 40015U 14033F   25360.57215914  .00001745  00000+0  20957-3 0  9993", "line2": "2 40015  97.6208 165.8066 0032630 201.0255 158.9621 14.84853471622002"}}, "geometry": {"type": "Point", "coordinates": [163.73529732955748, 16.463709701701312]}}, {"type": "Feature", "properties": {"norad_id": 40053, "name": "SPOT 7", "group": "resource", "lat": -35.277686734421735, "lon": 68.3019642226775, "alt_km": 697.4750240828489, "timestamp": "2025-12-26T18:39:31.929401+00:00", "meta": {"OBJECT_NAME": "SPOT 7", "OBJECT_ID": "2014-034A", "EPOCH": "2025-12-26T15:32:02.330880", "MEAN_MOTION": 14.60752231, "ECCENTRICITY": 0.00015223, "INCLINATION": 98.0883, "RA_OF_ASC_NODE": 62.4008, "ARG_OF_PERICENTER": 79.8685, "MEAN_ANOMALY": 280.2687, "EPHEMERIS_TYPE": 0, "CLASSIFICATION_TYPE": "U", "NORAD_CAT_ID": 40053, "ELEMENT_SET_NO": 999, "REV_AT_EPOCH": 61194, "BSTAR": 0.00018634431, "MEAN_MOTION_DOT": 8.63e-06, "MEAN_MOTION_DDOT": 0}, "tle": {"line1": "1 40053U 14034A   25360.64724920  .00000863  00000+0  18634-3 0  9995", "line2": "2 40053  98.0883  62.4008 0001522  79.8685 280.2687 14.60752231611948"}}, "geometry": {"type": "Point", "coordinates": [68.3019642226775, -35.277686734421735]}}, {"type": "Feature", "properties": {"norad_id": 40072, "name": "SKYSAT-B", "group": "resource", "lat": 17.0451097763915, "lon": 127.81131896814976, "alt_km": 603.6874300953359, "timestamp": "2025-12-26T18:39:31.929411+00:00", "meta": {"OBJECT_NAME": "SKYSAT-B", "OBJECT_ID": "2014-037D", "EPOCH": "2025-12-26T14:42:05.131296", "MEAN_MOTION": 14.87376812, "ECCENTRICITY": 0.0006873, "INCLINATION": 98.3629, "RA_OF_ASC_NODE": 305.0527, "ARG_OF_PERICENTER": 111.8235, "MEAN_ANOMALY": 248.3711, "EPHEMERIS_TYPE": 0, "CLASSIFICATION_TYPE": "U", "NORAD_CAT_ID": 40072, "ELEMENT_SET_NO": 999, "REV_AT_EPOCH": 62030, "BSTAR": 0.0002215646, "MEAN_MOTION_DOT": 1.942e-05, "MEAN_MOTION_DDOT": 0}, "tle": {"line1": "1 40072U 14037D   25360.61255939  .00001942  00000+0  22156-3 0  9998", "line2": "2 40072  98.3629 305.0527 0006873 111.8235 248.3711 14.87376812620303"}}, "geometry": {"type": "Point", "coordinates": [127.81131896814976, 17.0451097763915]}}, {"type": "Feature", "properties": {"norad_id": 40115, "name": "WORLDVIEW-3 (WV-3)", "group": "resource", "lat": -65.6902311512786, "lon": 90.73247205342052, "alt_km": 623.2590321419166, "timestamp": "2025-12-26T18:39:31.929420+00:00", "meta": {"OBJECT_NAME": "WORLDVIEW-3 (WV-3)", "OBJECT_ID": "2014-048A", "EPOCH": "2025-12-26T14:06:27.035424", "MEAN_MOTION": 14.84679252, "ECCENTRICITY": 0.0002102, "INCLINATION": 97.8763, "RA_OF_ASC_NODE": 72.6993, "ARG_OF_PERICENTER": 127.2984, "MEAN_ANOMALY": 232.8423, "EPHEMERIS_TYPE": 0, "CLASSIFICATION_TYPE": "U", "NORAD_CAT_ID": 40115, "ELEMENT_SET_NO": 999, "REV_AT_EPOCH": 61629, "BSTAR": 0.00014327207, "MEAN_MOTION_DOT": 1.159e-05, "MEAN_MOTION_DDOT": 0}, "tle": {"line1": "1 40115U 14048A   25360.58781291  .00001159  00000+0  14327-3 0  9990", "line2": "2 40115  97.8763  72.6993 0002102 127.2984 232.8423 14.84679252616293"}}, "geometry": {"type": "Point", "coordinates": [90.73247205342052, -65.6902311512786]}}]}